KMFD 111352Z 29017G37KT 1/4SM +TSRA FG SCT009 BKN024 OVC055 22/20 A3010 RMK AO2 PK WND 28037/1349 LTG DSNT ALQDS RAB48 TSB43 PRESRR SLP182 P0012 T02170200
KART 111356Z AUTO 21009KT 10SM BKN020 OVC027 27/23 A2991 RMK AO2 LTG DSNT W SLP124 T02670228
KSQI 111356Z 20009G22KT 170V240 10SM TSRA SCT009 BKN025 OVC060 22/21 A2990 RMK AO2 PK WND 23044/1338 LTG DSNT ALQDS TSB24RAB38 SLP989 T02170211 PNO $
KPIA 111354Z VRB06G21KT 6SM VCTS -RA FEW017 BKN027 OVC120 25/22 A2994 RMK AO2 LTG DSNT W-NE RAB34 SLP133 P0001 T02500222 $
KLEX 111354Z 21012KT 10SM CLR 27/23 A3011 RMK AO2 SLP185 T02720233
KGRR 111353Z 19011KT 10SM FEW009 BKN017 BKN250 24/23 A2987 RMK AO2 SLP107 T02390228
KJFZ 111355Z AUTO 00000KT 10SM -VCTSRA OVC110 19/18 A3030 RMK AO2 LTG DSNT N P0005 T01900183
KRHI 111353Z AUTO 21005KT 10SM OVC010 21/18 A2970 RMK AO2 CIG 008V013 SLP049 T02110183
KORD 111351Z 22011KT 10SM FEW015 BKN026 BKN250 27/24 A2981 RMK AO2 SLP090 T02670239
KHYR 111400Z AUTO 23004KT 3SM -TSRA BR SCT047 BKN070 OVC100 19/18 A2965 RMK AO2 LTG DSNT NE AND SW P0000 T01940178
KEAU 111356Z 21008KT 3SM BR BKN004 OVC008 24/22 A2964 RMK AO2 CIG 002V006 SLP030 T02390222
KDSM 111354Z 22013G23KT 10SM FEW250 28/23 A2974 RMK AO2 SLP060 T02780228
KBRD 111353Z AUTO 34015G22KT 10SM CLR 22/12 A2968 RMK AO2 SLP045 T02170117
KPAH 111353Z 19005KT 10SM CLR 28/23 A3006 RMK AO2 SLP173 T02780228
KIND 111354Z 22011KT 10SM FEW250 28/23 A2998 RMK AO2 SLP143 T02780228
KSTL 111351Z 22014G19KT 10SM FEW250 29/22 A2997 RMK AO2 SLP132 T02940217
KCKB 111353Z 20005KT 10SM VCTS OVC032 24/22 A3013 RMK AO2 RAB12E50 TSB25E50 SLP187 P0001 T02390217
KELM 111353Z 22007KT 10SM HZ FEW020 27/22 A2999 RMK AO2 SLP146 T02720222
KMDT 111356Z 14004KT 10SM CLR 27/21 A3005 RMK AO2 SLP173 T02670211
KMSN 111353Z 20007KT 10SM FEW014 BKN250 25/22 A2974 RMK AO2 SLP065 T02500217